{"distinct": [{"__class__": "tuple", "__value__": [{"city": "countryside", "name": "chicago land operators joint labor-management pac", "zip": "60525", "employer": null, "person": 1, "state": "il", "donor_id": 59023, "address": "6200 joliet rd.", "occupation": null}, {"city": "countryside", "name": "statesman of the year and local  pac", "zip": "60525", "employer": null, "person": 1, "state": "il", "donor_id": 300255, "address": "6200 joliet rd.", "occupation": null}]}, {"__class__": "tuple", "__value__": [{"city": "chicago", "name": "1340 n. bosworth llc", "zip": "60607", "employer": null, "person": 1, "state": "il", "donor_id": 551, "address": "355 n. laflin no. 606", "occupation": null}, {"city": "chicago", "name": "lorna propes", "zip": "60607", "employer": null, "person": 0, "state": "il", "donor_id": 551750, "address": "1549 w. jackson blvd", "occupation": null}]}, {"__class__": "tuple", "__value__": [{"city": "bloomington", "name": "central illinois properties", "zip": "61704", "employer": null, "person": 1, "state": "il", "donor_id": 52796, "address": "405 n. hershey", "occupation": null}, {"city": "chicago", "name": "marion realtycorporation", "zip": "60610", "employer": null, "person": 1, "state": "il", "donor_id": 214679, "address": "p o box 10290028", "occupation": null}]}, {"__class__": "tuple", "__value__": [{"city": "chicago", "name": "cermak produce #3", "zip": "60639", "employer": null, "person": 1, "state": "il", "donor_id": 53480, "address": "4401 w. armitage", "occupation": null}, {"city": "downers grove", "name": "intl brotherhood of electrical workers local 15 pac", "zip": "60007", "employer": null, "person": 1, "state": "il", "donor_id": 173484, "address": "6330 belmont rd, suite 1", "occupation": null}]}, {"__class__": "tuple", "__value__": [{"city": "springfield", "name": "employment law council political action committee", "zip": "62704", "employer": null, "person": 1, "state": "il", "donor_id": 106778, "address": "600 south 2nd street suite 101", "occupation": null}, {"city": "carol stream", "name": "hamlet catering inc", "zip": "60188", "employer": null, "person": 1, "state": "il", "donor_id": 138639, "address": "600 north ave", "occupation": null}]}, {"__class__": "tuple", "__value__": [{"city": "deerfield", "name": "northern il alliance of fire protection dist. pac", "zip": "60015", "employer": null, "person": 1, "state": "il", "donor_id": 240279, "address": "500 waukegan rd.", "occupation": null}, {"city": "deerfield", "name": "walgreens", "zip": "60015", "employer": null, "person": 1, "state": "il", "donor_id": 333465, "address": "200 wilmet rd", "occupation": null}]}, {"__class__": "tuple", "__value__": [{"city": "washington", "name": "international union of printers & allied trade # 30 pac", "zip": "20006", "employer": null, "person": 1, "state": "dc", "donor_id": 173229, "address": "united union building 1750 ny ave.", "occupation": null}, {"city": null, "name": "un-itemized", "zip": null, "employer": null, "person": 1, "state": "il", "donor_id": 327179, "address": null, "occupation": null}]}, {"__class__": "tuple", "__value__": [{"city": "springfield", "name": "iln-pac", "zip": "62704", "employer": null, "person": 1, "state": "il", "donor_id": 168667, "address": "413 w. monroe 2nd floor", "occupation": null}, {"city": "decatur", "name": "iln-pac", "zip": "62521", "employer": null, "person": 1, "state": "il", "donor_id": 168673, "address": "500 south 27th street", "occupation": null}]}, {"__class__": "tuple", "__value__": [{"city": "chicago", "name": "gery chico", "zip": "60606", "employer": "self", "person": 0, "state": "il", "donor_id": 455749, "address": "333 w. wacker drive", "occupation": "attorney"}, {"city": "chicago", "name": "kenneth goldberg", "zip": "60606", "employer": null, "person": 0, "state": "il", "donor_id": 532598, "address": "333 w. wacker drive", "occupation": null}]}, {"__class__": "tuple", "__value__": [{"city": "peotone", "name": "jet stream", "zip": "60475", "employer": null, "person": 1, "state": "il", "donor_id": 179947, "address": "po box 1010", "occupation": null}, {"city": "western springs", "name": "law offices of richard f. pellegrino ltd", "zip": "60558", "employer": null, "person": 1, "state": "il", "donor_id": 200782, "address": "po box 491", "occupation": null}]}, {"__class__": "tuple", "__value__": [{"city": "springfield", "name": "allstate insurance company", "zip": "62701", "employer": null, "person": 1, "state": "il", "donor_id": 13074, "address": "520 s. second st.", "occupation": null}, {"city": "springfield", "name": "unicare", "zip": "62701", "employer": null, "person": 1, "state": "il", "donor_id": 324067, "address": "520 s. second st. suite 1703", "occupation": null}]}, {"__class__": "tuple", "__value__": [{"city": "springfield", "name": "foster and associates", "zip": "62704", "employer": null, "person": 1, "state": "il", "donor_id": 118168, "address": "925 s. spring", "occupation": null}, {"city": "springfield", "name": "il mechanical & specialty contractors assn.", "zip": "62704", "employer": null, "person": 1, "state": "il", "donor_id": 168445, "address": "925 s. spring", "occupation": null}]}, {"__class__": "tuple", "__value__": [{"city": "naperville", "name": "dunn committee to elect joe", "zip": "60564", "employer": null, "person": 1, "state": "il", "donor_id": 100187, "address": "4219 clearwater lane", "occupation": null}, {"city": "naperville", "name": "joe dunn", "zip": "60564", "employer": null, "person": 0, "state": "il", "donor_id": 498148, "address": "4219 clearwater lane", "occupation": null}]}, {"__class__": "tuple", "__value__": [{"city": "chicago", "name": "irish american heritage center", "zip": "60630", "employer": null, "person": 1, "state": "il", "donor_id": 174225, "address": "4626 n. knox ave.", "occupation": null}, {"city": "chicago", "name": "sbc american", "zip": "60606", "employer": null, "person": 1, "state": "il", "donor_id": 282734, "address": "225 west randolph street floor 30d", "occupation": null}]}, {"__class__": "tuple", "__value__": [{"city": "forest park", "name": "iron workers local 1", "zip": "60130", "employer": null, "person": 1, "state": "il", "donor_id": 174430, "address": "7720 n. industrial drive", "occupation": null}, {"city": "aurora", "name": "ironworkers local #393", "zip": "60505", "employer": null, "person": 1, "state": "il", "donor_id": 174586, "address": "1901 selvarten rd.", "occupation": null}]}, {"__class__": "tuple", "__value__": [{"city": "st charles", "name": "karen maloney, m.d.", "zip": "60174", "employer": null, "person": 0, "state": "il", "donor_id": 526939, "address": "suite a 317 west illinois street", "occupation": null}, {"city": "highland park", "name": "karen may", "zip": "60035", "employer": null, "person": 0, "state": "il", "donor_id": 526953, "address": "460 hazel ave.", "occupation": null}]}, {"__class__": "tuple", "__value__": [{"city": "chicago", "name": "ameritech", "zip": "60608", "employer": null, "person": 1, "state": "il", "donor_id": 17240, "address": "225 w. randolph", "occupation": null}, {"city": "chicago", "name": "il wine and spirits distributors (iwadpac)", "zip": "60601", "employer": null, "person": 1, "state": "il", "donor_id": 169880, "address": "188 w. randolph street suite 1807", "occupation": null}]}], "match": [{"__class__": "tuple", "__value__": [{"city": "granite city", "name": "operating engineers local 520 10/81", "zip": "62040", "employer": null, "person": 1, "state": "il", "donor_id": 245377, "address": "520 engineer rd", "occupation": null}, {"city": "peoria", "name": "operating engineers local 649", "zip": "61604", "employer": null, "person": 1, "state": "il", "donor_id": 245434, "address": "6408 w plank rd", "occupation": null}]}, {"__class__": "tuple", "__value__": [{"city": "springfield", "name": "manufacturers political action committee", "zip": "62701", "employer": null, "person": 1, "state": "il", "donor_id": 213697, "address": "220 e adams st po box 2147", "occupation": null}, {"city": "springfield", "name": "manufacturers political action committee", "zip": "62701-1123", "employer": null, "person": 1, "state": "il", "donor_id": 213734, "address": "220 east adams street", "occupation": null}]}, {"__class__": "tuple", "__value__": [{"city": "chicago", "name": "e.c. purdy & associates", "zip": "60604", "employer": null, "person": 1, "state": "il", "donor_id": 102545, "address": "53 west jackson", "occupation": null}, {"city": "chicago", "name": "e.c. purdy & associates", "zip": "60601", "employer": null, "person": 1, "state": "il", "donor_id": 102546, "address": "no  address", "occupation": null}]}, {"__class__": "tuple", "__value__": [{"city": "chicago", "name": "a t & t wireless", "zip": "60606", "employer": null, "person": 1, "state": "il", "donor_id": 26586, "address": "227 w.  monroe st. ste. 400", "occupation": null}, {"city": "chicago", "name": "at & t wireless", "zip": "60606", "employer": null, "person": 1, "state": "il", "donor_id": 26595, "address": "227 w. monroe street", "occupation": null}]}, {"__class__": "tuple", "__value__": [{"city": "hoffman estates", "name": "carpenters local union 839 political action fund", "zip": "60195", "employer": null, "person": 1, "state": "il", "donor_id": 49496, "address": "2500 w. higgins rd. suite 1035", "occupation": null}, {"city": "springfield", "name": "carpenters local union no. 16 political fund", "zip": "62704", "employer": null, "person": 1, "state": "il", "donor_id": 49525, "address": "211 w. lawrence ave.", "occupation": null}]}, {"__class__": "tuple", "__value__": [{"city": "peoria", "name": "north central il laborer's dist council pac", "zip": "61615", "employer": null, "person": 1, "state": "il", "donor_id": 239802, "address": "4208 w. partridge way unit #2", "occupation": null}, {"city": "peoria", "name": "north central illinois laborers'", "zip": "61615", "employer": null, "person": 1, "state": "il", "donor_id": 239928, "address": "4208 w. partridge way unit #2", "occupation": null}]}, {"__class__": "tuple", "__value__": [{"city": "countryside", "name": "local area political action committee i.u.o.e local 150", "zip": "60525", "employer": null, "person": 1, "state": "il", "donor_id": 208076, "address": "6200 joliet road", "occupation": null}, {"city": "countryside", "name": "local no. 150 i.u.o.e. local area political action committee", "zip": "60525", "employer": null, "person": 1, "state": "il", "donor_id": 208262, "address": "6200 joliest road", "occupation": null}]}, {"__class__": "tuple", "__value__": [{"city": "springfield", "name": "il home builders", "zip": "62704-1902", "employer": null, "person": 1, "state": "il", "donor_id": 155164, "address": "112 w. edwards", "occupation": null}, {"city": "springfield", "name": "illinois homebuilders pac", "zip": "62704", "employer": null, "person": 1, "state": "il", "donor_id": 161431, "address": "112 w. edwards", "occupation": null}]}, {"__class__": "tuple", "__value__": [{"city": "volo", "name": "plumbers local 93 pf", "zip": "60073", "employer": null, "person": 1, "state": "il", "donor_id": 257964, "address": "31855 n. us highway 12", "occupation": null}, {"city": "volo", "name": "plumbers local union 93", "zip": "60073", "employer": null, "person": 1, "state": "il", "donor_id": 258009, "address": "31855 north u.s. highway 12", "occupation": null}]}, {"__class__": "tuple", "__value__": [{"city": "washington d.c.", "name": "t.i.p. educational fund-hotel employees union", "zip": "20007", "employer": null, "person": 1, "state": "il", "donor_id": 316744, "address": "1219 28th street", "occupation": null}, {"city": "washington", "name": "t.i.p. educational hotel & rest employees", "zip": "20007", "employer": null, "person": 1, "state": "dc", "donor_id": 316753, "address": "1219 28th street", "occupation": null}]}, {"__class__": "tuple", "__value__": [{"city": "chicago", "name": "illinois merchants pac team", "zip": "60603", "employer": null, "person": 1, "state": "il", "donor_id": 163914, "address": "19 s. lasalle street #300", "occupation": null}, {"city": "chicago", "name": "il merchants pac team", "zip": "60603", "employer": null, "person": 1, "state": "il", "donor_id": 168575, "address": "19 s lasalle street", "occupation": null}]}, {"__class__": "tuple", "__value__": [{"city": "des plaines", "name": "il community currency exchange pac", "zip": "60018", "employer": null, "person": 1, "state": "il", "donor_id": 154409, "address": "1400 e. toughy #405", "occupation": null}, {"city": "des plaines", "name": "illinois community currency exchange", "zip": "60018", "employer": null, "person": 1, "state": "il", "donor_id": 158605, "address": "1400 e. touhy suite 405", "occupation": null}]}, {"__class__": "tuple", "__value__": [{"city": "reading", "name": "penn national gaming", "zip": "19610-1247", "employer": null, "person": 1, "state": "pa", "donor_id": 251689, "address": "825 berkshire blvd", "occupation": null}, {"city": "wyomissing", "name": "penn national gaming inc.", "zip": "19610", "employer": null, "person": 1, "state": "pa", "donor_id": 251731, "address": "825 berkshire blvd wyomissing professional cntr", "occupation": null}]}, {"__class__": "tuple", "__value__": [{"city": "chicago", "name": "emanuel friends of rahm", "zip": "60610", "employer": null, "person": 1, "state": "il", "donor_id": 106051, "address": "po box 101124", "occupation": null}, {"city": "chicago", "name": "friends of rahm emanuel", "zip": "60610", "employer": null, "person": 1, "state": "il", "donor_id": 124479, "address": "p.o.box 101124", "occupation": null}]}, {"__class__": "tuple", "__value__": [{"city": "springfield", "name": "midwest truckers association", "zip": "62702", "employer": null, "person": 1, "state": "il", "donor_id": 227342, "address": "2727 n. dirksen parkway", "occupation": null}, {"city": "springfield", "name": "mid west truckers association inc.", "zip": "62702", "employer": null, "person": 1, "state": "il", "donor_id": 227348, "address": "2727 n. dirkesen parkway", "occupation": null}]}, {"__class__": "tuple", "__value__": [{"city": "boston", "name": "liberty mutual political action comm ill", "zip": "02116", "employer": null, "person": 1, "state": "ma", "donor_id": 204329, "address": "175 berkeley street", "occupation": null}, {"city": "xxxxxxx", "name": "libery mutual pac", "zip": "02116", "employer": null, "person": 1, "state": "il", "donor_id": 204418, "address": "175 berkeley street", "occupation": null}]}, {"__class__": "tuple", "__value__": [{"city": "rolling meadows", "name": "pepsi-cola general bottlers inc.", "zip": "60008", "employer": null, "person": 1, "state": "il", "donor_id": 252908, "address": "3501 algonquin rd.", "occupation": null}, {"city": "chicago", "name": "pepsi-cola general bottlers inc.", "zip": "60675-5944", "employer": null, "person": 1, "state": "il", "donor_id": 252911, "address": "post office box 75944", "occupation": null}]}, {"__class__": "tuple", "__value__": [{"city": "forest park", "name": "bridge structural & reinforcing ironworkers local 1", "zip": "60130-2520", "employer": null, "person": 1, "state": "il", "donor_id": 40841, "address": "7720 industrial drive", "occupation": null}, {"city": "forest", "name": "ironworker's local #1", "zip": "60130", "employer": null, "person": 1, "state": "il", "donor_id": 174441, "address": "7720 industrial drive", "occupation": null}]}, {"__class__": "tuple", "__value__": [{"city": "springfield", "name": "union planters", "zip": "62701", "employer": null, "person": 1, "state": "il", "donor_id": 324744, "address": "1825 s. 6th", "occupation": null}, {"city": "elgin", "name": "union planters", "zip": "60123", "employer": null, "person": 1, "state": "il", "donor_id": 324748, "address": "630  tollgate rd.", "occupation": null}]}, {"__class__": "tuple", "__value__": [{"city": "chicago", "name": "barbara flynn currie", "zip": "60615", "employer": null, "person": 1, "state": "il", "donor_id": 30066, "address": "1303 e 53rd st.", "occupation": null}, {"city": "chicago", "name": "barbara flynn currie", "zip": "60637", "employer": null, "person": 0, "state": "il", "donor_id": 365100, "address": "5650 s. harper", "occupation": null}]}, {"__class__": "tuple", "__value__": [{"city": "chicago", "name": "jill wine-banks", "zip": "60601", "employer": null, "person": 0, "state": "il", "donor_id": 494555, "address": "155 n. harbor dr.", "occupation": null}, {"city": "evanston", "name": "jill wine-banks", "zip": "60201", "employer": null, "person": 0, "state": "il", "donor_id": 494558, "address": "1724 ashbury ave.", "occupation": null}]}, {"__class__": "tuple", "__value__": [{"city": "chicago", "name": "fletcher, o'brien kasper & nottage, pc", "zip": "60601-1013", "employer": null, "person": 1, "state": "il", "donor_id": 116099, "address": "222 n la salle st ste 300", "occupation": null}, {"city": "chicago,", "name": "fletcher topol & o'brien, p. c.", "zip": "60601", "employer": null, "person": 1, "state": "il", "donor_id": 116471, "address": "222 n. lasalle st ste 300", "occupation": null}]}, {"__class__": "tuple", "__value__": [{"city": "springfield", "name": "illinois petroleum marketers assn.", "zip": "62704", "employer": null, "person": 1, "state": "il", "donor_id": 164637, "address": "112 w. cook", "occupation": null}, {"city": "springfield", "name": "petrolium political education", "zip": "62791", "employer": null, "person": 1, "state": "il", "donor_id": 254238, "address": "112 w. cook", "occupation": null}]}, {"__class__": "tuple", "__value__": [{"city": "chicago", "name": "emil jones jr. citizens", "zip": "60628", "employer": null, "person": 1, "state": "il", "donor_id": 106525, "address": "11357 s. lowe", "occupation": null}, {"city": "chicago", "name": "friends of  emil jones iii", "zip": "60628", "employer": null, "person": 1, "state": "il", "donor_id": 122570, "address": "11357 s. lowe", "occupation": null}]}, {"__class__": "tuple", "__value__": [{"city": "marion", "name": "so. central il laborers", "zip": "62959", "employer": null, "person": 1, "state": "il", "donor_id": 293892, "address": "5100 laborers way", "occupation": null}, {"city": "marion", "name": "southern central illinois laborer's", "zip": "62959", "employer": null, "person": 1, "state": "il", "donor_id": 295381, "address": "5100 laborer's way suite a", "occupation": null}]}, {"__class__": "tuple", "__value__": [{"city": "schaumburg", "name": "comcast", "zip": "60173", "employer": null, "person": 1, "state": "il", "donor_id": 75324, "address": "1500 mcconner pkwy", "occupation": null}, {"city": "southfield", "name": "comcast", "zip": "48034", "employer": null, "person": 1, "state": "mi", "donor_id": 75402, "address": "29777 telegraph rd ste 4400b", "occupation": null}]}]}